NORAD_CAT_ID,OBJECT_NAME,OBJECT_TYPE,EPOCH,MEAN_MOTION,ECCENTRICITY,INCLINATION,RA_OF_ASC_NODE,ARG_OF_PERICENTER,MEAN_ANOMALY,BSTAR,MEAN_MOTION_DOT,MEAN_MOTION_DDOT,TLE_LINE0,TLE_LINE1,TLE_LINE2,SEMIMAJOR_AXIS,PERIOD,APOGEE,PERIGEE,DECAYED
52089.0,STARLINK-3722,PAYLOAD,2023-04-25 10:46:29,15.08837508,0.0001273,53.2167,119.3446,100.7015,259.4121,2.8962e-05,1.73e-06,0.0,0 STARLINK-3722,1 52089U 22029B   23115.44895178  .00000173  00000-0  28962-4 0  9999,2 52089  53.2167 119.3446 0001273 100.7015 259.4121 15.08837508 62259,6917.888,95.438,540.634,538.872,0.0
52089.0,STARLINK-3722,PAYLOAD,2023-04-26 12:12:40,15.08827895,0.0001372,53.218,114.5835,89.7729,270.342,6.6989e-05,7.78e-06,0.0,0 STARLINK-3722,1 52089U 22029B   23116.50880017  .00000778  00000-0  66989-4 0  9995,2 52089  53.2180 114.5835 0001372  89.7729 270.3420 15.08827895 62411,6917.917,95.438,540.732,538.833,0.0
52089.0,STARLINK-3722,PAYLOAD,2023-04-26 16:58:49,15.08831334,0.0001265,53.2171,113.6925,95.5624,264.5513,9.9206e-05,1.291e-05,0.0,0 STARLINK-3722,1 52089U 22029B   23116.70751794  .00001291  00000-0  99206-4 0  9995,2 52089  53.2171 113.6925 0001265  95.5624 264.5513 15.08831334 62445,6917.907,95.438,540.647,538.897,0.0
52089.0,STARLINK-3722,PAYLOAD,2023-04-27 04:06:31,15.08838868,0.0001216,53.2167,111.6118,95.5404,264.5726,0.0001148,1.54e-05,0.0,0 STARLINK-3722,1 52089U 22029B   23117.17119440  .00001540  00000-0  11480-3 0  9997,2 52089  53.2167 111.6118 0001216  95.5404 264.5726 15.08838868 62517,6917.884,95.438,540.59,538.908,0.0
52089.0,STARLINK-3722,PAYLOAD,2023-04-27 12:03:26,15.08842941,0.0001166,53.2162,110.1253,96.2743,263.8382,0.00012546,1.71e-05,0.0,0 STARLINK-3722,1 52089U 22029B   23117.50239197  .00001710  00000-0  12546-3 0  9999,2 52089  53.2162 110.1253 0001166  96.2743 263.8382 15.08842941 62566,6917.871,95.437,540.543,538.93,0.0
52089.0,STARLINK-3722,PAYLOAD,2023-04-28 05:32:41,15.08837375,0.0001144,53.2164,106.854,96.2199,263.8923,9.8153e-05,1.275e-05,0.0,0 STARLINK-3722,1 52089U 22029B   23118.23103798  .00001275  00000-0  98153-4 0  9992,2 52089  53.2164 106.8540 0001144  96.2199 263.8923 15.08837375 62678,6917.888,95.438,540.545,538.962,0.0
52089.0,STARLINK-3722,PAYLOAD,2023-04-28 10:18:50,15.08843476,0.0001187,53.2164,105.9618,95.1198,264.993,0.0001494,2.091e-05,0.0,0 STARLINK-3722,1 52089U 22029B   23118.42975322  .00002091  00000-0  14940-3 0  9991,2 52089  53.2164 105.9618 0001187  95.1198 264.9930 15.08843476 62701,6917.87,95.437,540.556,538.914,0.0
52089.0,STARLINK-3722,PAYLOAD,2023-04-29 10:09:37,15.08850895,0.0001226,53.2169,101.5012,94.2386,265.8746,3.1725e-05,2.17e-06,0.0,0 STARLINK-3722,1 52089U 22029B   23119.42334983  .00000217  00000-0  31725-4 0  9993,2 52089  53.2169 101.5012 0001226  94.2386 265.8746 15.08850895 62853,6917.847,95.437,540.56,538.864,0.0
52089.0,STARLINK-3722,PAYLOAD,2023-04-30 10:00:24,15.08842758,0.0001343,53.2171,97.042,87.0416,273.0729,2.6822e-05,1.39e-06,0.0,0 STARLINK-3722,1 52089U 22029B   23120.41695555  .00000139  00000-0  26822-4 0  9994,2 52089  53.2171  97.0420 0001343  87.0416 273.0729 15.08842758 63001,6917.872,95.437,540.666,538.808,0.0
52089.0,STARLINK-3722,PAYLOAD,2023-05-01 05:05:02,15.08839418,0.0001363,53.2174,93.4725,96.0085,264.1062,1.1958e-05,-9.8e-07,0.0,0 STARLINK-3722,1 52089U 22029B   23121.21183931 -.00000098  00000-0  11958-4 0  9992,2 52089  53.2174  93.4725 0001363  96.0085 264.1062 15.08839418 63129,6917.882,95.438,540.69,538.804,0.0
52089.0,STARLINK-3722,PAYLOAD,2023-05-01 22:34:17,15.08829775,0.0001456,53.2175,90.2015,97.1205,262.9953,0.00020884,3.036e-05,0.0,0 STARLINK-3722,1 52089U 22029B   23121.94048252  .00003036  00000-0  20884-3 0  9999,2 52089  53.2175  90.2015 0001456  97.1205 262.9953 15.08829775 63238,6917.912,95.438,540.784,538.769,0.0
52089.0,STARLINK-3722,PAYLOAD,2023-05-02 06:31:12,15.08844066,0.0001292,53.2172,88.7165,94.1221,265.9919,9.4098e-05,1.21e-05,0.0,0 STARLINK-3722,1 52089U 22029B   23122.27167623  .00001210  00000-0  94098-4 0  9991,2 52089  53.2172  88.7165 0001292  94.1221 265.9919 15.08844066 63286,6917.868,95.437,540.627,538.839,0.0
52089.0,STARLINK-3722,PAYLOAD,2023-05-02 14:28:08,15.0883947,0.0001345,53.2177,87.2297,95.0044,265.1102,3.0648e-05,2e-06,0.0,0 STARLINK-3722,1 52089U 22029B   23122.60288087  .00000200  00000-0  30648-4 0  9995,2 52089  53.2177  87.2297 0001345  95.0044 265.1102 15.08839470 63338,6917.882,95.438,540.677,538.817,0.0
52089.0,STARLINK-3722,PAYLOAD,2023-05-02 20:49:42,15.08820124,0.0001324,53.2176,86.0398,93.9697,266.1447,0.00033037,4.971e-05,0.0,0 STARLINK-3722,1 52089U 22029B   23122.86784822  .00004971  00000-0  33037-3 0  9994,2 52089  53.2176  86.0398 0001324  93.9697 266.1447 15.08820124 63377,6917.941,95.439,540.722,538.89,0.0
52089.0,STARLINK-3722,PAYLOAD,2023-05-03 07:57:23,15.08841002,0.0001515,53.2178,83.9577,104.5225,255.5935,0.00011698,1.574e-05,0.0,0 STARLINK-3722,1 52089U 22029B   23123.33151874  .00001574  00000-0  11698-3 0  9997,2 52089  53.2178  83.9577 0001515 104.5225 255.5935 15.08841002 63442,6917.877,95.437,540.79,538.694,0.0
52089.0,STARLINK-3722,PAYLOAD,2023-05-04 03:02:01,15.08836213,0.0001457,53.2176,80.389,104.6775,255.4379,5.6535e-06,-1.98e-06,0.0,0 STARLINK-3722,1 52089U 22029B   23124.12640524 -.00000198  00000-0  56535-5 0  9993,2 52089  53.2176  80.3890 0001457 104.6775 255.4379 15.08836213 63567,6917.892,95.438,540.765,538.749,0.0
52089.0,STARLINK-3722,PAYLOAD,2023-05-04 06:12:47,15.0883906,0.000121,53.217,79.7931,95.8058,264.3072,9.3155e-07,-2.73e-06,0.0,0 STARLINK-3722,1 52089U 22029B   23124.25888359 -.00000273  00000-0  93155-6 0  9991,2 52089  53.2170  79.7931 0001210  95.8058 264.3072 15.08839060 63585,6917.883,95.438,540.585,538.911,0.0
52089.0,STARLINK-3722,PAYLOAD,2023-05-04 20:31:15,15.08837318,0.000122,53.2173,77.1191,92.998,267.1151,5.0852e-05,5.21e-06,0.0,0 STARLINK-3722,1 52089U 22029B   23124.85504457  .00000521  00000-0  50852-4 0  9991,2 52089  53.2173  77.1191 0001220  92.9980 267.1151 15.08837318 63674,6917.889,95.438,540.598,538.91,0.0
52089.0,STARLINK-3722,PAYLOAD,2023-05-05 06:03:34,15.088461,0.0001206,53.2172,75.3345,88.6774,271.4356,0.00010574,1.396e-05,0.0,0 STARLINK-3722,1 52089U 22029B   23125.25247815  .00001396  00000-0  10574-3 0  9995,2 52089  53.2172  75.3345 0001206  88.6774 271.4356 15.08846100 63732,6917.862,95.437,540.561,538.892,0.0
52089.0,STARLINK-3722,PAYLOAD,2023-05-06 05:54:21,15.08844131,0.0001299,53.2171,70.8742,81.3707,278.7433,9.2745e-05,1.189e-05,0.0,0 STARLINK-3722,1 52089U 22029B   23126.24608270  .00001189  00000-0  92745-4 0  9992,2 52089  53.2171  70.8742 0001299  81.3707 278.7433 15.08844131 63884,6917.868,95.437,540.631,538.834,0.0
52089.0,STARLINK-3722,PAYLOAD,2023-05-07 02:34:21,15.08858605,0.0001132,53.2173,67.0068,96.0197,264.0924,0.00015313,2.151e-05,0.0,0 STARLINK-3722,1 52089U 22029B   23127.10718945  .00002151  00000-0  15313-3 0  9994,2 52089  53.2173  67.0068 0001132  96.0197 264.0924 15.08858605 64017,6917.824,95.436,540.472,538.905,0.0
52089.0,STARLINK-3722,PAYLOAD,2023-05-07 05:45:07,15.08863888,0.0001179,53.2177,66.4109,104.049,256.0633,0.00014203,1.975e-05,0.0,0 STARLINK-3722,1 52089U 22029B   23127.23966531  .00001975  00000-0  14203-3 0  9994,2 52089  53.2177  66.4109 0001179 104.0490 256.0633 15.08863888 64036,6917.807,95.436,540.488,538.857,0.0
52089.0,STARLINK-3722,PAYLOAD,2023-05-08 02:25:09,15.08834836,0.0001056,53.217,62.5463,105.2592,254.8517,-3.522e-05,-8.48e-06,0.0,0 STARLINK-3722,1 52089U 22029B   23128.10080693 -.00000848  00000-0 -35220-4 0  9990,2 52089  53.2170  62.5463 0001056 105.2592 254.8517 15.08834836 64161,6917.896,95.438,540.492,539.031,0.0
52089.0,STARLINK-3722,PAYLOAD,2023-05-08 05:35:55,15.08838877,9.71e-05,53.2174,61.9512,89.5253,270.585,3.9405e-05,3.39e-06,0.0,0 STARLINK-3722,1 52089U 22029B   23128.23328582  .00000339  00000-0  39405-4 0  9998,2 52089  53.2174  61.9512 0000971  89.5253 270.5850 15.08838877 64182,6917.884,95.438,540.421,539.077,0.0
52089.0,STARLINK-3722,PAYLOAD,2023-05-09 02:15:56,15.08852814,9.39e-05,53.2177,58.0871,93.1406,266.9693,0.00032544,4.897e-05,0.0,0 STARLINK-3722,1 52089U 22029B   23129.09440107  .00004897  00000-0  32544-3 0  9990,2 52089  53.2177  58.0871 0000939  93.1406 266.9693 15.08852814 64311,6917.841,95.437,540.356,539.057,0.0
52089.0,STARLINK-3722,PAYLOAD,2023-05-10 05:17:30,15.08843352,7.37e-05,53.2171,53.0324,84.8345,275.2731,0.00018842,2.713e-05,0.0,0 STARLINK-3722,1 52089U 22029B   23130.22048650  .00002713  00000-0  18842-3 0  9994,2 52089  53.2171  53.0324 0000737  84.8345 275.2731 15.08843352 64489,6917.87,95.437,540.245,539.225,0.0
52089.0,STARLINK-3722,PAYLOAD,2023-05-11 01:57:30,15.08845705,0.0001077,53.2176,49.1684,73.8348,286.2763,0.0001684,2.394e-05,0.0,0 STARLINK-3722,1 52089U 22029B   23131.08160586  .00002394  00000-0  16840-3 0  9993,2 52089  53.2176  49.1684 0001077  73.8348 286.2763 15.08845705 64614,6917.863,95.437,540.473,538.983,0.0
52089.0,STARLINK-3722,PAYLOAD,2023-05-12 00:12:55,15.08835561,8.05e-05,53.2169,45.005,91.9838,268.1247,7.4832e-05,9.03e-06,0.0,0 STARLINK-3722,1 52089U 22029B   23132.00897384  .00000903  00000-0  74832-4 0  9999,2 52089  53.2169  45.0050 0000805  91.9838 268.1247 15.08835561 64751,6917.894,95.438,540.316,539.202,0.0
52089.0,STARLINK-3722,PAYLOAD,2023-05-12 01:48:18,15.08837262,8.45e-05,53.2169,44.7074,99.5547,260.5541,0.0001029,1.35e-05,0.0,0 STARLINK-3722,1 52089U 22029B   23132.07521270  .00001350  00000-0  10290-3 0  9998,2 52089  53.2169  44.7074 0000845  99.5547 260.5541 15.08837262 64762,6917.889,95.438,540.338,539.169,0.0
52089.0,STARLINK-3722,PAYLOAD,2023-05-13 00:03:42,15.08844892,8.27e-05,53.2167,40.544,113.1099,246.9981,0.00018394,2.641e-05,0.0,0 STARLINK-3722,1 52089U 22029B   23133.00257259  .00002641  00000-0  18394-3 0  9992,2 52089  53.2167  40.5440 0000827 113.1099 246.9981 15.08844892 64905,6917.865,95.437,540.303,539.158,0.0
